[{"OBJECT_NAME":"QIANKUN-1","OBJECT_ID":"2023-103B","EPOCH":"2026-03-05T12:49:33.234816","MEAN_MOTION":16.08514637,"ECCENTRICITY":0.0030783,"INCLINATION":96.1968,"RA_OF_ASC_NODE":116.327,"ARG_OF_PERICENTER":170.3202,"MEAN_ANOMALY":189.8684,"EPHEMERIS_TYPE":0,"CLASSIFICATION_TYPE":"U","NORAD_CAT_ID":57422,"ELEMENT_SET_NO":999,"REV_AT_EPOCH":15064,"BSTAR":5.663e-7,"MEAN_MOTION_DOT":-2.1e-7,"MEAN_MOTION_DDOT":1.6855e-6},{"OBJECT_NAME":"OBJECT B","OBJECT_ID":"2023-104B","EPOCH":"2026-03-05T23:18:48.808800","MEAN_MOTION":15.94451324,"ECCENTRICITY":0.00028705,"INCLINATION":97.2684,"RA_OF_ASC_NODE":153.4916,"ARG_OF_PERICENTER":313.0843,"MEAN_ANOMALY":47.0192,"EPHEMERIS_TYPE":0,"CLASSIFICATION_TYPE":"U","NORAD_CAT_ID":57425,"ELEMENT_SET_NO":999,"REV_AT_EPOCH":14748,"BSTAR":0.00083454067,"MEAN_MOTION_DOT":0.00311538,"MEAN_MOTION_DDOT":3.9692407e-5},{"OBJECT_NAME":"INTUITION-1","OBJECT_ID":"2023-174CW","EPOCH":"2026-03-05T16:47:21.145920","MEAN_MOTION":15.91927054,"ECCENTRICITY":0.0003593,"INCLINATION":97.3761,"RA_OF_ASC_NODE":160.7517,"ARG_OF_PERICENTER":235.1056,"MEAN_ANOMALY":124.988,"EPHEMERIS_TYPE":0,"CLASSIFICATION_TYPE":"U","NORAD_CAT_ID":58565,"ELEMENT_SET_NO":999,"REV_AT_EPOCH":13024,"BSTAR":0.0012971966,"MEAN_MOTION_DOT":0.00424677,"MEAN_MOTION_DDOT":7.1210941e-5},{"OBJECT_NAME":"OBJECT B","OBJECT_ID":"2024-085B","EPOCH":"2026-03-05T23:46:18.649632","MEAN_MOTION":15.95396555,"ECCENTRICITY":0.00096777,"INCLINATION":97.336,"RA_OF_ASC_NODE":157.0702,"ARG_OF_PERICENTER":298.1019,"MEAN_ANOMALY":61.9279,"EPHEMERIS_TYPE":0,"CLASSIFICATION_TYPE":"U","NORAD_CAT_ID":59678,"ELEMENT_SET_NO":999,"REV_AT_EPOCH":10282,"BSTAR":0.0012971289,"MEAN_MOTION_DOT":0.00511366,"MEAN_MOTION_DDOT":0.00010883495},{"OBJECT_NAME":"OBJECT D","OBJECT_ID":"2024-095D","EPOCH":"2026-03-05T01:21:24.857280","MEAN_MOTION":15.92155338,"ECCENTRICITY":0.00052609,"INCLINATION":97.5303,"RA_OF_ASC_NODE":167.7716,"ARG_OF_PERICENTER":254.9341,"MEAN_ANOMALY":105.1351,"EPHEMERIS_TYPE":0,"CLASSIFICATION_TYPE":"U","NORAD_CAT_ID":59813,"ELEMENT_SET_NO":999,"REV_AT_EPOCH":10015,"BSTAR":0.001780105,"MEAN_MOTION_DOT":0.00589793,"MEAN_MOTION_DDOT":0.0001403731},{"OBJECT_NAME":"RUZAEVKA 390 (RS44S)","OBJECT_ID":"2024-199AH","EPOCH":"2026-03-05T22:24:31.525344","MEAN_MOTION":16.07881858,"ECCENTRICITY":0.00023963,"INCLINATION":97.2817,"RA_OF_ASC_NODE":307.0194,"ARG_OF_PERICENTER":171.7328,"MEAN_ANOMALY":188.3994,"EPHEMERIS_TYPE":0,"CLASSIFICATION_TYPE":"U","NORAD_CAT_ID":61766,"ELEMENT_SET_NO":999,"REV_AT_EPOCH":11892,"BSTAR":0.001811558,"MEAN_MOTION_DOT":0.01435747,"MEAN_MOTION_DDOT":0.0013562897},{"OBJECT_NAME":"COSMOS 2591","OBJECT_ID":"2025-182A","EPOCH":"2026-03-05T17:44:49.431264","MEAN_MOTION":15.9640134,"ECCENTRICITY":0.00079445,"INCLINATION":96.5938,"RA_OF_ASC_NODE":358.0583,"ARG_OF_PERICENTER":172.1859,"MEAN_ANOMALY":187.9545,"EPHEMERIS_TYPE":0,"CLASSIFICATION_TYPE":"U","NORAD_CAT_ID":65267,"ELEMENT_SET_NO":999,"REV_AT_EPOCH":3119,"BSTAR":0.00018325759,"MEAN_MOTION_DOT":0.00075753,"MEAN_MOTION_DDOT":4.042958e-6},{"OBJECT_NAME":"COSMOS 2592","OBJECT_ID":"2025-182B","EPOCH":"2026-03-05T15:06:51.282144","MEAN_MOTION":15.96382533,"ECCENTRICITY":0.000717,"INCLINATION":96.5906,"RA_OF_ASC_NODE":357.9096,"ARG_OF_PERICENTER":168.5536,"MEAN_ANOMALY":191.5907,"EPHEMERIS_TYPE":0,"CLASSIFICATION_TYPE":"U","NORAD_CAT_ID":65268,"ELEMENT_SET_NO":999,"REV_AT_EPOCH":3117,"BSTAR":1.1848e-5,"MEAN_MOTION_DOT":4.342e-5,"MEAN_MOTION_DDOT":1.8609e-6},{"OBJECT_NAME":"COSMOS 2593","OBJECT_ID":"2025-182C","EPOCH":"2026-03-05T13:59:10.158144","MEAN_MOTION":15.96412483,"ECCENTRICITY":0.0007309,"INCLINATION":96.5882,"RA_OF_ASC_NODE":357.8369,"ARG_OF_PERICENTER":166.2302,"MEAN_ANOMALY":193.9177,"EPHEMERIS_TYPE":0,"CLASSIFICATION_TYPE":"U","NORAD_CAT_ID":65269,"ELEMENT_SET_NO":999,"REV_AT_EPOCH":3116,"BSTAR":5.8016e-5,"MEAN_MOTION_DOT":0.00023585,"MEAN_MOTION_DDOT":2.0678e-6},{"OBJECT_NAME":"COSMOS 2594","OBJECT_ID":"2025-182D","EPOCH":"2026-03-05T14:21:44.746848","MEAN_MOTION":15.9639362,"ECCENTRICITY":0.0007039,"INCLINATION":96.5907,"RA_OF_ASC_NODE":357.8208,"ARG_OF_PERICENTER":167.7756,"MEAN_ANOMALY":192.3695,"EPHEMERIS_TYPE":0,"CLASSIFICATION_TYPE":"U","NORAD_CAT_ID":65270,"ELEMENT_SET_NO":999,"REV_AT_EPOCH":3118,"BSTAR":0.00024191,"MEAN_MOTION_DOT":0.00100071,"MEAN_MOTION_DDOT":5.6759e-6},{"OBJECT_NAME":"ISS OBJECT XK","OBJECT_ID":"1998-067XK","EPOCH":"2026-03-05T10:08:56.907168","MEAN_MOTION":16.09887648,"ECCENTRICITY":0.0004832,"INCLINATION":51.6145,"RA_OF_ASC_NODE":68.9863,"ARG_OF_PERICENTER":74.1567,"MEAN_ANOMALY":285.9979,"EPHEMERIS_TYPE":0,"CLASSIFICATION_TYPE":"U","NORAD_CAT_ID":65731,"ELEMENT_SET_NO":999,"REV_AT_EPOCH":2621,"BSTAR":0.0012997,"MEAN_MOTION_DOT":0.0123534,"MEAN_MOTION_DDOT":0.00097089},{"OBJECT_NAME":"CZ-4B R/B","OBJECT_ID":"2025-289B","EPOCH":"2026-03-06T02:00:37.929312","MEAN_MOTION":16.47343359,"ECCENTRICITY":0.0010186,"INCLINATION":97.4928,"RA_OF_ASC_NODE":143.7033,"ARG_OF_PERICENTER":27.6912,"MEAN_ANOMALY":332.4932,"EPHEMERIS_TYPE":0,"CLASSIFICATION_TYPE":"U","NORAD_CAT_ID":66989,"ELEMENT_SET_NO":999,"REV_AT_EPOCH":1377,"BSTAR":0.00018295,"MEAN_MOTION_DOT":0.10603572,"MEAN_MOTION_DDOT":2.5591e-6},{"OBJECT_NAME":"STARLINK-36618","OBJECT_ID":"2026-033AC","EPOCH":"2026-03-05T22:00:01.999584","MEAN_MOTION":15.9258709,"ECCENTRICITY":0.00016773,"INCLINATION":42.9844,"RA_OF_ASC_NODE":292.5013,"ARG_OF_PERICENTER":277.4563,"MEAN_ANOMALY":269.3055,"EPHEMERIS_TYPE":0,"CLASSIFICATION_TYPE":"U","NORAD_CAT_ID":67847,"ELEMENT_SET_NO":999,"REV_AT_EPOCH":405,"BSTAR":-0.0037068798,"MEAN_MOTION_DOT":-0.01312688,"MEAN_MOTION_DDOT":0.00049974067},{"OBJECT_NAME":"STARLINK-36818","OBJECT_ID":"2026-035A","EPOCH":"2026-03-05T22:00:01.999584","MEAN_MOTION":15.95904682,"ECCENTRICITY":0.00013367,"INCLINATION":97.2761,"RA_OF_ASC_NODE":356.963,"ARG_OF_PERICENTER":105.2197,"MEAN_ANOMALY":71.0951,"EPHEMERIS_TYPE":0,"CLASSIFICATION_TYPE":"U","NORAD_CAT_ID":67879,"ELEMENT_SET_NO":999,"REV_AT_EPOCH":315,"BSTAR":-0.0027340853,"MEAN_MOTION_DOT":-0.01101159,"MEAN_MOTION_DDOT":0.00037471788},{"OBJECT_NAME":"STARLINK-36821","OBJECT_ID":"2026-035B","EPOCH":"2026-03-05T22:00:01.999584","MEAN_MOTION":15.96050997,"ECCENTRICITY":0.00013138,"INCLINATION":97.2756,"RA_OF_ASC_NODE":356.9663,"ARG_OF_PERICENTER":104.0005,"MEAN_ANOMALY":79.4694,"EPHEMERIS_TYPE":0,"CLASSIFICATION_TYPE":"U","NORAD_CAT_ID":67880,"ELEMENT_SET_NO":999,"REV_AT_EPOCH":315,"BSTAR":-0.0027227265,"MEAN_MOTION_DOT":-0.01105212,"MEAN_MOTION_DDOT":0.00037786231}]
